NAVSTAR 77 (USA 289)    
1 43873U 18109A   24037.45327355 -.00000009  00000+0  00000+0 0  9992
2 43873  55.2457 126.2350 0028786 193.4312 159.6088  2.00573572 37781
